NORAD_CAT_ID,OBJECT_NAME,OBJECT_TYPE,EPOCH,MEAN_MOTION,ECCENTRICITY,INCLINATION,RA_OF_ASC_NODE,ARG_OF_PERICENTER,MEAN_ANOMALY,BSTAR,MEAN_MOTION_DOT,MEAN_MOTION_DDOT,TLE_LINE0,TLE_LINE1,TLE_LINE2,SEMIMAJOR_AXIS,PERIOD,APOGEE,PERIGEE,DECAYED
50850.0,STARLINK-3312,PAYLOAD,2024-04-02 05:19:41,15.08844989,0.0001554,53.2179,70.5724,91.9348,268.1822,0.00016349,2.315e-05,0.0,0 STARLINK-3312,1 50850U 22001AZ  24093.22200413  .00002315  00000-0  16349-3 0  9992,2 50850  53.2179  70.5724 0001554  91.9348 268.1822 15.08844989125453,6917.865,95.437,540.805,538.655,0.0
50850.0,STARLINK-3312,PAYLOAD,2024-04-02 22:48:56,15.08834094,0.0001618,53.2178,67.3017,87.5464,272.5713,8.358e-05,1.042e-05,0.0,0 STARLINK-3312,1 50850U 22001AZ  24093.95064896  .00001042  00000-0  83580-4 0  9993,2 50850  53.2178  67.3017 0001618  87.5464 272.5713 15.08834094124826,6917.898,95.438,540.883,538.644,0.0
50850.0,STARLINK-3312,PAYLOAD,2024-04-03 05:10:28,15.08833442,0.0001616,53.2197,66.118,92.0939,268.0238,5.1878e-05,5.38e-06,0.0,0 STARLINK-3312,1 50850U 22001AZ  24094.21560936  .00000538  00000-0  51878-4 0  9993,2 50850  53.2197  66.1180 0001616  92.0939 268.0238 15.08833442125606,6917.9,95.438,540.883,538.648,0.0
50850.0,STARLINK-3312,PAYLOAD,2024-04-03 14:42:47,15.08842304,0.0001535,53.2185,64.3308,89.2444,270.8724,7.923e-05,9.73e-06,0.0,0 STARLINK-3312,1 50850U 22001AZ  24094.61304496  .00000973  00000-0  79230-4 0  9999,2 50850  53.2185  64.3308 0001535  89.2444 270.8724 15.08842304124926,6917.873,95.437,540.8,538.676,0.0
50850.0,STARLINK-3312,PAYLOAD,2024-04-04 05:01:15,15.08837917,0.000154,53.2206,61.6558,99.1126,261.0041,5.2516e-05,5.48e-06,0.0,0 STARLINK-3312,1 50850U 22001AZ  24095.20921152  .00000548  00000-0  52516-4 0  9995,2 50850  53.2206  61.6558 0001540  99.1126 261.0041 15.08837917125750,6917.887,95.438,540.817,538.686,0.0
50850.0,STARLINK-3312,PAYLOAD,2024-04-04 14:33:33,15.08859793,0.0001638,53.2212,59.8709,89.8394,270.2786,-0.00020228,-3.508e-05,0.0,0 STARLINK-3312,1 50850U 22001AZ  24095.60663996 -.00003508  00000-0 -20228-3 0  9993,2 50850  53.2212  59.8709 0001638  89.8394 270.2786 15.08859793125074,6917.82,95.436,540.818,538.552,0.0
50850.0,STARLINK-3312,PAYLOAD,2024-04-04 20:55:06,15.08838876,0.0001618,53.2211,58.6816,94.386,265.7317,0.00015312,2.15e-05,0.0,0 STARLINK-3312,1 50850U 22001AZ  24095.87160866  .00002150  00000-0  15312-3 0  9998,2 50850  53.2211  58.6816 0001618  94.3860 265.7317 15.08838876125119,6917.884,95.438,540.868,538.63,0.0
50850.0,STARLINK-3312,PAYLOAD,2024-04-05 14:24:20,15.08849111,0.0001555,53.2198,55.4084,78.4802,281.6365,0.00014835,2.074e-05,0.0,0 STARLINK-3312,1 50850U 22001AZ  24096.60024258  .00002074  00000-0  14835-3 0  9998,2 50850  53.2198  55.4084 0001555  78.4802 281.6365 15.08849111125220,6917.853,95.437,540.793,538.642,0.0
50850.0,STARLINK-3312,PAYLOAD,2024-04-06 03:07:27,15.08832538,0.0001249,53.2209,53.031,86.3622,273.7513,5.7513e-05,6.27e-06,0.0,0 STARLINK-3312,1 50850U 22001AZ  24097.13017545  .00000627  00000-0  57513-4 0  9991,2 50850  53.2209  53.0310 0001249  86.3622 273.7513 15.08832538126040,6917.903,95.438,540.632,538.904,0.0
50850.0,STARLINK-3312,PAYLOAD,2024-04-06 14:15:07,15.08850241,0.0001444,53.2193,50.9494,84.3336,275.7821,0.0001298,1.779e-05,0.0,0 STARLINK-3312,1 50850U 22001AZ  24097.59384210  .00001779  00000-0  12980-3 0  9994,2 50850  53.2193  50.9494 0001444  84.3336 275.7821 15.08850241125378,6917.849,95.437,540.713,538.715,0.0
50850.0,STARLINK-3312,PAYLOAD,2024-04-07 06:09:00,15.0884082,0.0001663,53.2205,47.9724,87.724,272.3943,2.9356e-05,1.79e-06,0.0,0 STARLINK-3312,1 50850U 22001AZ  24098.25625166  .00000179  00000-0  29356-4 0  9995,2 50850  53.2205  47.9724 0001663  87.7240 272.3943 15.08840820125479,6917.878,95.438,540.893,538.592,0.0
50850.0,STARLINK-3312,PAYLOAD,2024-04-07 14:05:55,15.0885008,0.0001373,53.2189,46.4861,90.8923,269.2226,8.0846e-05,9.99e-06,0.0,0 STARLINK-3312,1 50850U 22001AZ  24098.58744299  .00000999  00000-0  80846-4 0  9991,2 50850  53.2189  46.4861 0001373  90.8923 269.2226 15.08850080126263,6917.85,95.437,540.664,538.765,0.0
50850.0,STARLINK-3312,PAYLOAD,2024-04-08 02:49:00,15.08835818,0.0001283,53.2192,44.1093,93.5459,266.568,0.0001012,1.323e-05,0.0,0 STARLINK-3312,1 50850U 22001AZ  24099.11737234  .00001323  00000-0  10120-3 0  9991,2 50850  53.2192  44.1093 0001283  93.5459 266.5680 15.08835818126348,6917.893,95.438,540.646,538.871,0.0
50850.0,STARLINK-3312,PAYLOAD,2024-04-08 05:59:47,15.08842058,0.0001432,53.2199,43.5139,96.1065,264.009,5.4483e-05,5.79e-06,0.0,0 STARLINK-3312,1 50850U 22001AZ  24099.24985002  .00000579  00000-0  54483-4 0  9996,2 50850  53.2199  43.5139 0001432  96.1065 264.0090 15.08842058125629,6917.874,95.437,540.73,538.748,0.0
50850.0,STARLINK-3312,PAYLOAD,2024-04-08 23:29:01,15.0883774,0.0001447,53.2202,40.2421,98.9571,261.1585,0.0001221,1.656e-05,0.0,0 STARLINK-3312,1 50850U 22001AZ  24099.97849106  .00001656  00000-0  12210-3 0  9998,2 50850  53.2202  40.2421 0001447  98.9571 261.1585 15.08837740125731,6917.887,95.438,540.753,538.751,0.0
50850.0,STARLINK-3312,PAYLOAD,2024-04-09 05:50:34,15.08839523,0.0001451,53.2197,39.0531,101.569,258.5465,7.8119e-05,9.56e-06,0.0,0 STARLINK-3312,1 50850U 22001AZ  24100.24345062  .00000956  00000-0  78119-4 0  9996,2 50850  53.2197  39.0531 0001451 101.5690 258.5465 15.08839523126515,6917.882,95.438,540.751,538.743,0.0
50850.0,STARLINK-3312,PAYLOAD,2024-04-10 12:02:52,15.08850625,0.0001328,53.2189,33.4031,86.5712,273.5432,0.0001283,1.755e-05,0.0,0 STARLINK-3312,1 50850U 22001AZ  24101.50200231  .00001755  00000-0  12830-3 0  9999,2 50850  53.2189  33.4031 0001328  86.5712 273.5432 15.08850625126707,6917.848,95.437,540.632,538.794,0.0
50850.0,STARLINK-3312,PAYLOAD,2024-04-10 23:10:36,15.08825447,0.0001365,53.2194,31.3215,89.9799,270.1349,-3.7756e-05,-8.88e-06,0.0,0 STARLINK-3312,1 50850U 22001AZ  24101.96570490 -.00000888  00000-0 -37756-4 0  9999,2 50850  53.2194  31.3215 0001365  89.9799 270.1349 15.08825447126037,6917.925,95.438,540.734,538.846,0.0
50850.0,STARLINK-3312,PAYLOAD,2024-04-11 02:21:22,15.08832255,0.0001499,53.2193,30.7309,107.8283,252.2873,-7.4638e-06,-4.07e-06,0.0,0 STARLINK-3312,1 50850U 22001AZ  24102.09818175 -.00000407  00000-0 -74638-5 0  9997,2 50850  53.2193  30.7309 0001499 107.8283 252.2873 15.08832255126790,6917.904,95.438,540.806,538.732,0.0
50850.0,STARLINK-3312,PAYLOAD,2024-04-11 11:53:40,15.08843229,0.0001346,53.2194,28.9422,86.8199,273.2947,0.00011846,1.598e-05,0.0,0 STARLINK-3312,1 50850U 22001AZ  24102.49561188  .00001598  00000-0  11846-3 0  9990,2 50850  53.2194  28.9422 0001346  86.8199 273.2947 15.08843229126854,6917.871,95.437,540.667,538.804,0.0
50850.0,STARLINK-3312,PAYLOAD,2024-04-12 03:47:32,15.08837788,0.0001544,53.2207,25.971,92.4741,267.6428,3.9879e-05,3.47e-06,0.0,0 STARLINK-3312,1 50850U 22001AZ  24103.15801989  .00000347  00000-0  39879-4 0  9998,2 50850  53.2207  25.9710 0001544  92.4741 267.6428 15.08837788126957,6917.887,95.438,540.82,538.684,0.0
50850.0,STARLINK-3312,PAYLOAD,2024-04-12 22:52:10,15.08838635,0.0001607,53.2202,22.4057,108.8346,251.282,0.00018192,2.608e-05,0.0,0 STARLINK-3312,1 50850U 22001AZ  24103.95289655  .00002608  00000-0  18192-3 0  9992,2 50850  53.2202  22.4057 0001607 108.8346 251.2820 15.08838635126330,6917.885,95.438,540.861,538.638,0.0
50850.0,STARLINK-3312,PAYLOAD,2024-04-13 02:02:56,15.08841648,0.0001551,53.2199,21.8094,102.2978,257.8188,0.00015006,2.101e-05,0.0,0 STARLINK-3312,1 50850U 22001AZ  24104.08537626  .00002101  00000-0  15006-3 0  9990,2 50850  53.2199  21.8094 0001551 102.2978 257.8188 15.08841648126355,6917.875,95.437,540.813,538.667,0.0
50850.0,STARLINK-3312,PAYLOAD,2024-04-14 03:29:06,15.08843056,0.0001499,53.2194,17.0481,73.0429,287.0728,7.5966e-05,9.21e-06,0.0,0 STARLINK-3312,1 50850U 22001AZ  24105.14521754  .00000921  00000-0  75966-4 0  9993,2 50850  53.2194  17.0481 0001499  73.0429 287.0728 15.08843056127254,6917.871,95.437,540.773,538.699,0.0
50850.0,STARLINK-3312,PAYLOAD,2024-04-15 03:19:53,15.0884905,0.0001497,53.2172,12.6046,60.3196,299.7945,0.00013296,1.829e-05,0.0,0 STARLINK-3312,1 50850U 22001AZ  24106.13881242  .00001829  00000-0  13296-3 0  9999,2 50850  53.2172  12.6046 0001497  60.3196 299.7945 15.08849050126661,6917.853,95.437,540.753,538.682,0.0
50850.0,STARLINK-3312,PAYLOAD,2024-04-15 20:49:08,15.08845746,0.0001195,53.2185,9.3229,89.178,270.9349,-0.00035456,-5.927e-05,0.0,0 STARLINK-3312,1 50850U 22001AZ  24106.86745499 -.00005927  00000-0 -35456-3 0  9999,2 50850  53.2185   9.3229 0001195  89.1780 270.9349 15.08845746127516,6917.863,95.437,540.555,538.901,0.0
50850.0,STARLINK-3312,PAYLOAD,2024-04-15 23:59:54,15.0884086,0.0001654,53.2197,8.7214,82.2812,277.8368,7.8214e-05,9.57e-06,0.0,0 STARLINK-3312,1 50850U 22001AZ  24106.99993898  .00000957  00000-0  78214-4 0  9997,2 50850  53.2197   8.7214 0001654  82.2812 277.8368 15.08840860126794,6917.878,95.438,540.887,538.599,0.0
50850.0,STARLINK-3312,PAYLOAD,2024-04-16 22:15:18,15.08848889,0.0001521,53.2188,4.5594,85.4237,274.6929,0.0004654,7.128e-05,0.0,0 STARLINK-3312,1 50850U 22001AZ  24107.92729336  .00007128  00000-0  46540-3 0  9998,2 50850  53.2188   4.5594 0001521  85.4237 274.6929 15.08848889126931,6917.853,95.437,540.77,538.666,0.0
50850.0,STARLINK-3312,PAYLOAD,2024-04-17 03:01:27,15.08854625,0.0001369,53.2177,3.6654,91.2089,268.906,0.00051785,7.966e-05,0.0,0 STARLINK-3312,1 50850U 22001AZ  24108.12600940  .00007966  00000-0  51785-3 0  9997,2 50850  53.2177   3.6654 0001369  91.2089 268.9060 15.08854625127709,6917.836,95.437,540.648,538.754,0.0
50850.0,STARLINK-3312,PAYLOAD,2024-04-17 20:30:42,15.08833498,0.0001597,53.2196,0.396,104.5375,255.5794,-7.8319e-05,-1.534e-05,0.0,0 STARLINK-3312,1 50850U 22001AZ  24108.85465851 -.00001534  00000-0 -78319-4 0  9997,2 50850  53.2196   0.3960 0001597 104.5375 255.5794 15.08833498127816,6917.9,95.438,540.87,538.66,0.0
